[{"OBJECT_NAME":"JUGNU","OBJECT_ID":"2011-058B","EPOCH":"2026-03-09T11:56:36.486528","MEAN_MOTION":14.1374078,"ECCENTRICITY":0.00187632,"INCLINATION":19.9594,"RA_OF_ASC_NODE":194.0637,"ARG_OF_PERICENTER":55.3849,"MEAN_ANOMALY":14.6148,"EPHEMERIS_TYPE":0,"CLASSIFICATION_TYPE":"U","NORAD_CAT_ID":37839,"ELEMENT_SET_NO":999,"REV_AT_EPOCH":74490,"BSTAR":0.00014293025,"MEAN_MOTION_DOT":5.41e-6,"MEAN_MOTION_DDOT":0},{"OBJECT_NAME":"FENGYUN 1C DEB","OBJECT_ID":"1999-025EYR","EPOCH":"2026-03-08T03:46:13.888416","MEAN_MOTION":14.26719204,"ECCENTRICITY":0.00502107,"INCLINATION":98.7535,"RA_OF_ASC_NODE":144.3316,"ARG_OF_PERICENTER":335.2992,"MEAN_ANOMALY":24.5785,"EPHEMERIS_TYPE":0,"CLASSIFICATION_TYPE":"U","NORAD_CAT_ID":45526,"ELEMENT_SET_NO":999,"REV_AT_EPOCH":44594,"BSTAR":0.001997689,"MEAN_MOTION_DOT":4.856e-5,"MEAN_MOTION_DDOT":0}]
